CCSDS_OMM_VERS = 2.0
CREATION_DATE  = 
ORIGINATOR     = 

OBJECT_NAME    = SILVERSAT
OBJECT_ID      = 1998-067XV
CENTER_NAME    = EARTH
REF_FRAME      = TEME
TIME_SYSTEM    = UTC
MEAN_ELEMENT_THEORY = SGP/SGP4

EPOCH          = 2026-02-04T17:32:35.077056
MEAN_MOTION    = 15.61983698
ECCENTRICITY   = .0002733
INCLINATION    = 51.6265
RA_OF_ASC_NODE = 232.3240
ARG_OF_PERICENTER = 198.6299
MEAN_ANOMALY   = 161.4595

EPHEMERIS_TYPE = 0
CLASSIFICATION_TYPE = U
NORAD_CAT_ID   = 66909
ELEMENT_SET_NO = 999
REV_AT_EPOCH   = 1002
BSTAR          = .12469E-2
MEAN_MOTION_DOT = .111974E-2
MEAN_MOTION_DDOT = 0

CCSDS_OMM_VERS = 2.0
CREATION_DATE  = 
ORIGINATOR     = 

OBJECT_NAME    = 1998-067XW
OBJECT_ID      = 1998-067XW
CENTER_NAME    = EARTH
REF_FRAME      = TEME
TIME_SYSTEM    = UTC
MEAN_ELEMENT_THEORY = SGP/SGP4

EPOCH          = 2026-02-04T19:22:04.609920
MEAN_MOTION    = 15.60755016
ECCENTRICITY   = .0001037
INCLINATION    = 51.6258
RA_OF_ASC_NODE = 232.0768
ARG_OF_PERICENTER = 199.7580
MEAN_ANOMALY   = 160.3373

EPHEMERIS_TYPE = 0
CLASSIFICATION_TYPE = U
NORAD_CAT_ID   = 66910
ELEMENT_SET_NO = 999
REV_AT_EPOCH   = 1003
BSTAR          = .10583E-2
MEAN_MOTION_DOT = .90282E-3
MEAN_MOTION_DDOT = 0

CCSDS_OMM_VERS = 2.0
CREATION_DATE  = 
ORIGINATOR     = 

OBJECT_NAME    = 1998-067XX
OBJECT_ID      = 1998-067XX
CENTER_NAME    = EARTH
REF_FRAME      = TEME
TIME_SYSTEM    = UTC
MEAN_ELEMENT_THEORY = SGP/SGP4

EPOCH          = 2026-02-04T16:53:56.749056
MEAN_MOTION    = 15.63087495
ECCENTRICITY   = .0002304
INCLINATION    = 51.6239
RA_OF_ASC_NODE = 232.1391
ARG_OF_PERICENTER = 228.4224
MEAN_ANOMALY   = 131.6573

EPHEMERIS_TYPE = 0
CLASSIFICATION_TYPE = U
NORAD_CAT_ID   = 66911
ELEMENT_SET_NO = 999
REV_AT_EPOCH   = 1001
BSTAR          = .13061E-2
MEAN_MOTION_DOT = .12265E-2
MEAN_MOTION_DDOT = 0

CCSDS_OMM_VERS = 2.0
CREATION_DATE  = 
ORIGINATOR     = 

OBJECT_NAME    = 1998-067XY
OBJECT_ID      = 1998-067XY
CENTER_NAME    = EARTH
REF_FRAME      = TEME
TIME_SYSTEM    = UTC
MEAN_ELEMENT_THEORY = SGP/SGP4

EPOCH          = 2026-02-04T17:37:41.232864
MEAN_MOTION    = 15.58102151
ECCENTRICITY   = .0001662
INCLINATION    = 51.6271
RA_OF_ASC_NODE = 233.0987
ARG_OF_PERICENTER = 145.9909
MEAN_ANOMALY   = 214.1190

EPHEMERIS_TYPE = 0
CLASSIFICATION_TYPE = U
NORAD_CAT_ID   = 66912
ELEMENT_SET_NO = 999
REV_AT_EPOCH   = 1000
BSTAR          = .87553E-3
MEAN_MOTION_DOT = .67217E-3
MEAN_MOTION_DDOT = 0

